LANDSAT 9               
1 49260U 21088A   23364.14567899  .00000582  00000+0  13911-3 0  9999
2 49260  98.2095  71.4745 0001108  89.3434 270.7891 14.57121734119926
